{"type": "FeatureCollection", "features": [ {"type": "Feature", "properties": {"norad_id": 66900, "name": "STARLINK-36074", "group": "last-30-days", "lat": -27.727231274934713, "lon": -156.98874037214497, "alt_km": 417.30262782292084, "timestamp": "2025-12-27T15:27:09.831798+00:00", "meta": {"OBJECT_NAME": "STARLINK-36074", "OBJECT_ID": "2025-283Y", "EPOCH": "2025-12-27T06:00:02.000160", "MEAN_MOTION": 15.53014037, "ECCENTRICITY": 0.00013797, "INCLINATION": 53.1597, "RA_OF_ASC_NODE": 1.6948, "ARG_OF_PERICENTER": 81.0604, "MEAN_ANOMALY": 92.492, "EPHEMERIS_TYPE": 0, "CLASSIFICATION_TYPE": "U", "NORAD_CAT_ID": 66900, "ELEMENT_SET_NO": 999, "REV_AT_EPOCH": 476, "BSTAR": -0.036128929, "MEAN_MOTION_DOT": -0.02045798, "MEAN_MOTION_DDOT": 0}, "tle": {"line1": "1 66900U 25283Y   25361.25002315 -.02045798  00000+0 -36129-1 0  9994", "line2": "2 66900  53.1597   1.6948 0001379  81.0604  92.4920 15.53014037  4762"}}, "geometry": {"type": "Point", "coordinates": [-156.98874037214497, -27.727231274934713]}}, {"type": "Feature", "properties": {"norad_id": 66901, "name": "STARLINK-36043", "group": "last-30-days", "lat": -29.127831236957004, "lon": -155.5072589985044, "alt_km": 417.48499871792865, "timestamp": "2025-12-27T15:27:09.831808+00:00", "meta": {"OBJECT_NAME": "STARLINK-36043", "OBJECT_ID": "2025-283Z", "EPOCH": "2025-12-27T06:00:02.000160", "MEAN_MOTION": 15.53015322, "ECCENTRICITY": 0.00015198, "INCLINATION": 53.1597, "RA_OF_ASC_NODE": 1.6904, "ARG_OF_PERICENTER": 82.0697, "MEAN_ANOMALY": 93.3996, "EPHEMERIS_TYPE": 0, "CLASSIFICATION_TYPE": "U", "NORAD_CAT_ID": 66901, "ELEMENT_SET_NO": 999, "REV_AT_EPOCH": 476, "BSTAR": -0.036195088, "MEAN_MOTION_DOT": -0.02049314, "MEAN_MOTION_DDOT": 0}, "tle": {"line1": "1 66901U 25283Z   25361.25002315 -.02049314  00000+0 -36195-1 0  9996", "line2": "2 66901  53.1597   1.6904 0001519  82.0697  93.3996 15.53015322  4765"}}, "geometry": {"type": "Point", "coordinates": [-155.5072589985044, -29.127831236957004]}}, {"type": "Feature", "properties": {"norad_id": 66902, "name": "STARLINK-35983", "group": "last-30-days", "lat": -30.51064557380245, "lon": -153.9855592153578, "alt_km": 417.5474212166064, "timestamp": "2025-12-27T15:27:09.831818+00:00", "meta": {"OBJECT_NAME": "STARLINK-35983", "OBJECT_ID": "2025-283AA", "EPOCH": "2025-12-27T06:00:02.000160", "MEAN_MOTION": 15.53018548, "ECCENTRICITY": 0.00014097, "INCLINATION": 53.1598, "RA_OF_ASC_NODE": 1.6866, "ARG_OF_PERICENTER": 81.9383, "MEAN_ANOMALY": 95.4463, "EPHEMERIS_TYPE": 0, "CLASSIFICATION_TYPE": "U", "NORAD_CAT_ID": 66902, "ELEMENT_SET_NO": 999, "REV_AT_EPOCH": 476, "BSTAR": -0.036262012, "MEAN_MOTION_DOT": -0.02052839, "MEAN_MOTION_DDOT": 0}, "tle": {"line1": "1 66902U 25283AA  25361.25002315 -.02052839  00000+0 -36262-1 0  9998", "line2": "2 66902  53.1598   1.6866 0001409  81.9383  95.4463 15.53018548  4767"}}, "geometry": {"type": "Point", "coordinates": [-153.9855592153578, -30.51064557380245]}}, {"type": "Feature", "properties": {"norad_id": 66903, "name": "STARLINK-36077", "group": "last-30-days", "lat": -31.875066804581454, "lon": -152.42017832093896, "alt_km": 417.6981387109263, "timestamp": "2025-12-27T15:27:09.831828+00:00", "meta": {"OBJECT_NAME": "STARLINK-36077", "OBJECT_ID": "2025-283AB", "EPOCH": "2025-12-27T06:00:02.000160", "MEAN_MOTION": 15.53016766, "ECCENTRICITY": 0.0001442, "INCLINATION": 53.16, "RA_OF_ASC_NODE": 1.683, "ARG_OF_PERICENTER": 79.5132, "MEAN_ANOMALY": 99.7893, "EPHEMERIS_TYPE": 0, "CLASSIFICATION_TYPE": "U", "NORAD_CAT_ID": 66903, "ELEMENT_SET_NO": 999, "REV_AT_EPOCH": 476, "BSTAR": -0.036227942, "MEAN_MOTION_DOT": -0.0205102, "MEAN_MOTION_DDOT": 0}, "tle": {"line1": "1 66903U 25283AB  25361.25002315 -.02051020  00000+0 -36228-1 0  9992", "line2": "2 66903  53.1600   1.6830 0001442  79.5132  99.7893 15.53016766  4769"}}, "geometry": {"type": "Point", "coordinates": [-152.42017832093896, -31.875066804581454]}}, {"type": "Feature", "properties": {"norad_id": 66904, "name": "STARLINK-36059", "group": "last-30-days", "lat": -33.21778470348687, "lon": -150.81103012472485, "alt_km": 417.9096139139119, "timestamp": "2025-12-27T15:27:09.831838+00:00", "meta": {"OBJECT_NAME": "STARLINK-36059", "OBJECT_ID": "2025-283AC", "EPOCH": "2025-12-27T06:00:02.000160", "MEAN_MOTION": 15.53012453, "ECCENTRICITY": 0.00015319, "INCLINATION": 53.1598, "RA_OF_ASC_NODE": 1.6782, "ARG_OF_PERICENTER": 72.7021, "MEAN_ANOMALY": 108.5167, "EPHEMERIS_TYPE": 0, "CLASSIFICATION_TYPE": "U", "NORAD_CAT_ID": 66904, "ELEMENT_SET_NO": 999, "REV_AT_EPOCH": 476, "BSTAR": -0.036092545, "MEAN_MOTION_DOT": -0.02043949, "MEAN_MOTION_DDOT": 0}, "tle": {"line1": "1 66904U 25283AC  25361.25002315 -.02043949  00000+0 -36093-1 0  9994", "line2": "2 66904  53.1598   1.6782 0001531  72.7021 108.5167 15.53012453  4765"}}, "geometry": {"type": "Point", "coordinates": [-150.81103012472485, -33.21778470348687]}}, {"type": "Feature", "properties": {"norad_id": 66905, "name": "STARLINK-36075", "group": "last-30-days", "lat": -34.54231640818175, "lon": -149.14653292287423, "alt_km": 417.9897257199609, "timestamp": "2025-12-27T15:27:09.831848+00:00", "meta": {"OBJECT_NAME": "STARLINK-36075", "OBJECT_ID": "2025-283AD", "EPOCH": "2025-12-27T06:00:02.000160", "MEAN_MOTION": 15.53008949, "ECCENTRICITY": 0.00016103, "INCLINATION": 53.1597, "RA_OF_ASC_NODE": 1.6747, "ARG_OF_PERICENTER": 78.9772, "MEAN_ANOMALY": 104.1609, "EPHEMERIS_TYPE": 0, "CLASSIFICATION_TYPE": "U", "NORAD_CAT_ID": 66905, "ELEMENT_SET_NO": 999, "REV_AT_EPOCH": 476, "BSTAR": -0.036016067, "MEAN_MOTION_DOT": -0.020399, "MEAN_MOTION_DDOT": 0}, "tle": {"line1": "1 66905U 25283AD  25361.25002315 -.02039900  00000+0 -36016-1 0  9992", "line2": "2 66905  53.1597   1.6747 0001610  78.9772 104.1609 15.53008949  4763"}}, "geometry": {"type": "Point", "coordinates": [-149.14653292287423, -34.54231640818175]}}, {"type": "Feature", "properties": {"norad_id": 66906, "name": "1998-067XS", "group": "last-30-days", "lat": 7.4645423443377865, "lon": -117.49869759838577, "alt_km": 412.95656872409745, "timestamp": "2025-12-27T15:27:09.831861+00:00", "meta": {"OBJECT_NAME": "1998-067XS", "OBJECT_ID": "1998-067XS", "EPOCH": "2025-12-26T15:31:52.021632", "MEAN_MOTION": 15.5132596, "ECCENTRICITY": 0.00026732, "INCLINATION": 51.6319, "RA_OF_ASC_NODE": 73.4106, "ARG_OF_PERICENTER": 274.6449, "MEAN_ANOMALY": 85.4236, "EPHEMERIS_TYPE": 0, "CLASSIFICATION_TYPE": "U", "NORAD_CAT_ID": 66906, "ELEMENT_SET_NO": 999, "REV_AT_EPOCH": 377, "BSTAR": 0.00048784884, "MEAN_MOTION_DOT": 0.0002883, "MEAN_MOTION_DDOT": 0}, "tle": {"line1": "1 66906U 98067XS  25360.64712988  .00028830  00000+0  48785-3 0  9993", "line2": "2 66906  51.6319  73.4106 0002673 274.6449  85.4236 15.51325960  3771"}}, "geometry": {"type": "Point", "coordinates": [-117.49869759838577, 7.4645423443377865]}}, {"type": "Feature", "properties": {"norad_id": 66907, "name": "1998-067XT", "group": "last-30-days", "lat": -50.67402610586375, "lon": -36.47587542851349, "alt_km": 410.1305616834343, "timestamp": "2025-12-27T15:27:09.831874+00:00", "meta": {"OBJECT_NAME": "1998-067XT", "OBJECT_ID": "1998-067XT", "EPOCH": "2025-12-27T05:04:13.175904", "MEAN_MOTION": 15.53277989, "ECCENTRICITY": 0.00038082, "INCLINATION": 51.6318, "RA_OF_ASC_NODE": 70.428, "ARG_OF_PERICENTER": 315.2728, "MEAN_ANOMALY": 44.7954, "EPHEMERIS_TYPE": 0, "CLASSIFICATION_TYPE": "U", "NORAD_CAT_ID": 66907, "ELEMENT_SET_NO": 999, "REV_AT_EPOCH": 386, "BSTAR": 0.0010975373, "MEAN_MOTION_DOT": 0.00070608, "MEAN_MOTION_DDOT": 0}, "tle": {"line1": "1 66907U 98067XT  25361.21126361  .00070608  00000+0  10975-2 0  9991", "line2": "2 66907  51.6318  70.4280 0003808 315.2728  44.7954 15.53277989  3868"}}, "geometry": {"type": "Point", "coordinates": [-36.47587542851349, -50.67402610586375]}}, {"type": "Feature", "properties": {"norad_id": 66908, "name": "1998-067XU", "group": "last-30-days", "lat": -51.53000562430386, "lon": -26.134757168322594, "alt_km": 409.65554278923264, "timestamp": "2025-12-27T15:27:09.831884+00:00", "meta": {"OBJECT_NAME": "1998-067XU", "OBJECT_ID": "1998-067XU", "EPOCH": "2025-12-27T05:02:32.565696", "MEAN_MOTION": 15.5331388, "ECCENTRICITY": 0.00039981, "INCLINATION": 51.6321, "RA_OF_ASC_NODE": 70.4196, "ARG_OF_PERICENTER": 312.4216, "MEAN_ANOMALY": 47.6435, "EPHEMERIS_TYPE": 0, "CLASSIFICATION_TYPE": "U", "NORAD_CAT_ID": 66908, "ELEMENT_SET_NO": 999, "REV_AT_EPOCH": 386, "BSTAR": 0.00094152837, "MEAN_MOTION_DOT": 0.00060507, "MEAN_MOTION_DDOT": 0}, "tle": {"line1": "1 66908U 98067XU  25361.21009914  .00060507  00000+0  94153-3 0  9994", "line2": "2 66908  51.6321  70.4196 0003998 312.4216  47.6435 15.53313880  3867"}}, "geometry": {"type": "Point", "coordinates": [-26.134757168322594, -51.53000562430386]}}, {"type": "Feature", "properties": {"norad_id": 66909, "name": "SILVERSAT", "group": "last-30-days", "lat": -50.75905271812186, "lon": -7.692567536137804, "alt_km": 408.5475269940998, "timestamp": "2025-12-27T15:27:09.831895+00:00", "meta": {"OBJECT_NAME": "SILVERSAT", "OBJECT_ID": "1998-067XV", "EPOCH": "2025-12-27T04:59:41.464320", "MEAN_MOTION": 15.53631692, "ECCENTRICITY": 0.0003877, "INCLINATION": 51.6317, "RA_OF_ASC_NODE": 70.4068, "ARG_OF_PERICENTER": 318.5439, "MEAN_ANOMALY": 41.5257, "EPHEMERIS_TYPE": 0, "CLASSIFICATION_TYPE": "U", "NORAD_CAT_ID": 66909, "ELEMENT_SET_NO": 999, "REV_AT_EPOCH": 386, "BSTAR": 0.0011884923, "MEAN_MOTION_DOT": 0.00077561, "MEAN_MOTION_DDOT": 0}, "tle": {"line1": "1 66909U 98067XV  25361.20811880  .00077561  00000+0  11885-2 0  9995", "line2": "2 66909  51.6317  70.4068 0003877 318.5439  41.5257 15.53631692  3860"}}, "geometry": {"type": "Point", "coordinates": [-7.692567536137804, -50.75905271812186]}}]}